NORAD_CAT_ID,OBJECT_NAME,OBJECT_TYPE,EPOCH,MEAN_MOTION,ECCENTRICITY,INCLINATION,RA_OF_ASC_NODE,ARG_OF_PERICENTER,MEAN_ANOMALY,BSTAR,MEAN_MOTION_DOT,MEAN_MOTION_DDOT,TLE_LINE0,TLE_LINE1,TLE_LINE2,SEMIMAJOR_AXIS,PERIOD,APOGEE,PERIGEE,DECAYED
54104.0,STARLINK-5203,PAYLOAD,2024-01-07 20:03:32,15.08864381,0.0001904,53.2171,253.7649,118.7347,241.3837,0.00027997,4.173e-05,0.0,0 STARLINK-5203,1 54104U 22136BF  24007.83578806  .00004173  00000-0  27997-3 0  9998,2 54104  53.2171 253.7649 0001904 118.7347 241.3837 15.08864381 68406,6917.806,95.436,540.988,538.354,0.0
54104.0,STARLINK-5203,PAYLOAD,2024-01-07 21:38:55,15.08863759,0.0001762,53.2175,253.4678,115.6338,244.4836,0.00026985,4.012e-05,0.0,0 STARLINK-5203,1 54104U 22136BF  24007.90202773  .00004012  00000-0  26985-3 0  9991,2 54104  53.2175 253.4678 0001762 115.6338 244.4836 15.08863759 67946,6917.808,95.436,540.892,538.454,0.0
54104.0,STARLINK-5203,PAYLOAD,2024-01-07 23:14:18,15.0886433,0.0001461,53.217,253.1698,99.1742,260.9415,0.00027017,4.017e-05,0.0,0 STARLINK-5203,1 54104U 22136BF  24007.96826704  .00004017  00000-0  27017-3 0  9995,2 54104  53.2170 253.1698 0001461  99.1742 260.9415 15.08864330 67954,6917.806,95.436,540.682,538.66,0.0
54104.0,STARLINK-5203,PAYLOAD,2024-01-08 19:54:21,15.08836651,0.0001516,53.2168,249.3062,116.5898,243.5249,1.4503e-05,-5.7e-07,0.0,0 STARLINK-5203,1 54104U 22136BF  24008.82941170 -.00000057  00000-0  14503-4 0  9994,2 54104  53.2168 249.3062 0001516 116.5898 243.5249 15.08836651 68554,6917.891,95.438,540.804,538.707,0.0
54104.0,STARLINK-5203,PAYLOAD,2024-01-08 21:29:44,15.08836024,0.0001471,53.2167,249.0088,115.3593,244.7551,8.7994e-06,-1.48e-06,0.0,0 STARLINK-5203,1 54104U 22136BF  24008.89565246 -.00000148  00000-0  87994-5 0  9993,2 54104  53.2167 249.0088 0001471 115.3593 244.7551 15.08836024 68099,6917.893,95.438,540.775,538.74,0.0
54104.0,STARLINK-5203,PAYLOAD,2024-01-09 14:58:59,15.08835257,0.0001468,53.2171,245.7367,105.7926,254.3228,-2.4962e-05,-6.85e-06,0.0,0 STARLINK-5203,1 54104U 22136BF  24009.62429688 -.00000685  00000-0 -24962-4 0  9996,2 54104  53.2171 245.7367 0001468 105.7926 254.3228 15.08835257 68204,6917.895,95.438,540.775,538.744,0.0
54104.0,STARLINK-5203,PAYLOAD,2024-01-09 21:20:31,15.08847869,0.000137,53.2168,244.5486,104.7308,255.3836,-0.00014206,-2.549e-05,0.0,0 STARLINK-5203,1 54104U 22136BF  24009.88925242 -.00002549  00000-0 -14206-3 0  9991,2 54104  53.2168 244.5486 0001370 104.7308 255.3836 15.08847869 68246,6917.856,95.437,540.669,538.774,0.0
54104.0,STARLINK-5203,PAYLOAD,2024-01-10 00:31:17,15.08851087,0.0001612,53.2173,243.9533,116.5736,243.5422,-0.00011398,-2.102e-05,0.0,0 STARLINK-5203,1 54104U 22136BF  24010.02172872 -.00002102  00000-0 -11398-3 0  9996,2 54104  53.2173 243.9533 0001612 116.5736 243.5422 15.08851087 68734,6917.847,95.437,540.827,538.596,0.0
54104.0,STARLINK-5203,PAYLOAD,2024-01-10 19:35:55,15.08831328,0.0001416,53.2175,240.3852,107.9255,252.1892,0.00011703,1.575e-05,0.0,0 STARLINK-5203,1 54104U 22136BF  24010.81661837  .00001575  00000-0  11703-3 0  9998,2 54104  53.2175 240.3852 0001416 107.9255 252.1892 15.08831328 68859,6917.907,95.438,540.751,538.792,0.0
54104.0,STARLINK-5203,PAYLOAD,2024-01-11 00:22:05,15.08834873,0.0001352,53.217,239.4926,100.5207,259.5938,0.00014806,2.069e-05,0.0,0 STARLINK-5203,1 54104U 22136BF  24011.01533751  .00002069  00000-0  14806-3 0  9990,2 54104  53.2170 239.4926 0001352 100.5207 259.5938 15.08834873 68412,6917.896,95.438,540.696,538.826,0.0
54104.0,STARLINK-5203,PAYLOAD,2024-01-11 21:02:05,15.08843131,0.0001434,53.2175,235.6269,92.7234,267.3922,0.00011128,1.484e-05,0.0,0 STARLINK-5203,1 54104U 22136BF  24011.87645643  .00001484  00000-0  11128-3 0  9992,2 54104  53.2175 235.6269 0001434  92.7234 267.3922 15.08843131 68549,6917.871,95.437,540.728,538.744,0.0
54104.0,STARLINK-5203,PAYLOAD,2024-01-12 00:12:51,15.08846826,0.0001425,53.2171,235.0317,95.5503,264.5652,0.00013959,1.935e-05,0.0,0 STARLINK-5203,1 54104U 22136BF  24012.00893313  .00001935  00000-0  13959-3 0  9992,2 54104  53.2171 235.0317 0001425  95.5503 264.5652 15.08846826 69031,6917.86,95.437,540.71,538.739,0.0
54104.0,STARLINK-5203,PAYLOAD,2024-01-12 14:31:20,15.08838187,0.0001712,53.2155,232.3544,103.3261,256.7922,4.4859e-05,4.26e-06,0.0,0 STARLINK-5203,1 54104U 22136BF  24012.60510108  .00000426  00000-0  44859-4 0  9994,2 54104  53.2155 232.3544 0001712 103.3261 256.7922 15.08838187 68654,6917.886,95.438,540.935,538.567,0.0
54104.0,STARLINK-5203,PAYLOAD,2024-01-12 19:17:30,15.08836386,0.0001769,53.2158,231.4631,95.5403,264.5791,2.676e-05,1.38e-06,0.0,0 STARLINK-5203,1 54104U 22136BF  24012.80382346  .00000138  00000-0  26760-4 0  9998,2 54104  53.2158 231.4631 0001769  95.5403 264.5791 15.08836386 69152,6917.891,95.438,540.98,538.533,0.0
54104.0,STARLINK-5203,PAYLOAD,2024-01-12 20:52:53,15.08836561,0.0001594,53.2176,231.1653,112.9624,247.1537,1.1685e-05,-1.02e-06,0.0,0 STARLINK-5203,1 54104U 22136BF  24012.87006376 -.00000102  00000-0  11685-4 0  9993,2 54104  53.2176 231.1653 0001594 112.9624 247.1537 15.08836561 68696,6917.891,95.438,540.859,538.653,0.0
54104.0,STARLINK-5203,PAYLOAD,2024-01-13 19:08:16,15.08848092,0.000124,53.2169,227.0025,90.2322,269.8813,8.4305e-05,1.054e-05,0.0,0 STARLINK-5203,1 54104U 22136BF  24013.79741694  .00001054  00000-0  84305-4 0  9999,2 54104  53.2169 227.0025 0001240  90.2322 269.8813 15.08848092 69305,6917.856,95.437,540.578,538.863,0.0
54104.0,STARLINK-5203,PAYLOAD,2024-01-13 23:54:26,15.08847652,0.0001355,53.2159,226.11,105.1132,255.001,0.00020594,2.992e-05,0.0,0 STARLINK-5203,1 54104U 22136BF  24013.99613783  .00002992  00000-0  20594-3 0  9999,2 54104  53.2159 226.1100 0001355 105.1132 255.0010 15.08847652 68867,6917.857,95.437,540.659,538.785,0.0
54104.0,STARLINK-5203,PAYLOAD,2024-01-14 18:59:04,15.08842907,0.0001366,53.2157,222.5398,91.688,268.4268,0.00010251,1.344e-05,0.0,0 STARLINK-5203,1 54104U 22136BF  24014.79102004  .00001344  00000-0  10251-3 0  9996,2 54104  53.2157 222.5398 0001366  91.6880 268.4268 15.08842907 69452,6917.872,95.437,540.681,538.792,0.0
54104.0,STARLINK-5203,PAYLOAD,2024-01-14 20:34:27,15.08843392,0.0001365,53.2157,222.2424,91.1558,268.9591,0.00010415,1.37e-05,0.0,0 STARLINK-5203,1 54104U 22136BF  24014.85725968  .00001370  00000-0  10415-3 0  9994,2 54104  53.2157 222.2424 0001365  91.1558 268.9591 15.08843392 68996,6917.87,95.437,540.679,538.791,0.0
54104.0,STARLINK-5203,PAYLOAD,2024-01-15 12:28:18,15.08840652,0.0001354,53.2163,219.2693,92.077,268.0377,2.3837e-05,9.1e-07,0.0,0 STARLINK-5203,1 54104U 22136BF  24015.51966294  .00000091  00000-0  23837-4 0  9999,2 54104  53.2163 219.2693 0001354  92.0770 268.0377 15.08840652 69092,6917.878,95.438,540.68,538.807,0.0
54104.0,STARLINK-5203,PAYLOAD,2024-01-15 20:25:14,15.08842899,0.0001321,53.2159,217.7833,92.4354,267.679,2.1092e-05,4.8e-07,0.0,0 STARLINK-5203,1 54104U 22136BF  24015.85085977  .00000048  00000-0  21092-4 0  9999,2 54104  53.2159 217.7833 0001321  92.4354 267.6790 15.08842899 69147,6917.872,95.437,540.65,538.823,0.0
54104.0,STARLINK-5203,PAYLOAD,2024-01-16 12:19:06,15.08836613,0.0001295,53.2152,214.8111,87.9959,272.1182,3.8434e-05,3.24e-06,0.0,0 STARLINK-5203,1 54104U 22136BF  24016.51326405  .00000324  00000-0  38434-4 0  9992,2 54104  53.2152 214.8111 0001295  87.9959 272.1182 15.08836613 69713,6917.891,95.438,540.652,538.86,0.0
54104.0,STARLINK-5203,PAYLOAD,2024-01-16 13:54:29,15.08835829,0.0001293,53.2153,214.5134,89.9153,270.1987,2.6225e-05,1.29e-06,0.0,0 STARLINK-5203,1 54104U 22136BF  24016.57950481  .00000129  00000-0  26225-4 0  9993,2 54104  53.2153 214.5134 0001293  89.9153 270.1987 15.08835829 69250,6917.893,95.438,540.653,538.864,0.0
54104.0,STARLINK-5203,PAYLOAD,2024-01-16 20:16:01,15.08835896,0.0001286,53.2155,213.3239,89.3963,270.7177,1.8555e-05,7e-08,0.0,0 STARLINK-5203,1 54104U 22136BF  24016.84446523  .00000007  00000-0  18555-4 0  9992,2 54104  53.2155 213.3239 0001286  89.3963 270.7177 15.08835896 69295,6917.893,95.438,540.648,538.868,0.0
54104.0,STARLINK-5203,PAYLOAD,2024-01-16 23:26:48,15.08836159,0.0001288,53.2155,212.7291,89.3926,270.7213,1.8951e-05,1.4e-07,0.0,0 STARLINK-5203,1 54104U 22136BF  24016.97694530  .00000014  00000-0  18951-4 0  9997,2 54104  53.2155 212.7291 0001288  89.3926 270.7213 15.08836159 69314,6917.892,95.438,540.648,538.866,0.0
54104.0,STARLINK-5203,PAYLOAD,2024-01-17 20:06:48,15.08838591,0.0001323,53.2165,208.8639,91.2543,268.8601,4.987e-05,5.06e-06,0.0,0 STARLINK-5203,1 54104U 22136BF  24017.83806522  .00000506  00000-0  49870-4 0  9999,2 54104  53.2165 208.8639 0001323  91.2543 268.8601 15.08838591 69911,6917.885,95.438,540.665,538.834,0.0
54104.0,STARLINK-5203,PAYLOAD,2024-01-18 19:57:35,15.08841275,0.0001306,53.2167,204.4032,87.1657,272.9484,9.1143e-05,1.163e-05,0.0,0 STARLINK-5203,1 54104U 22136BF  24018.83166369  .00001163  00000-0  91143-4 0  9998,2 54104  53.2167 204.4032 0001306  87.1657 272.9484 15.08841275 69595,6917.876,95.437,540.645,538.838,0.0
54104.0,STARLINK-5203,PAYLOAD,2024-01-19 18:12:59,15.08844966,0.0001436,53.217,200.2419,76.3148,283.8004,8.5035e-05,1.066e-05,0.0,0 STARLINK-5203,1 54104U 22136BF  24019.75902130  .00001066  00000-0  85035-4 0  9999,2 54104  53.2170 200.2419 0001436  76.3148 283.8004 15.08844966 70200,6917.865,95.437,540.724,538.737,0.0
54104.0,STARLINK-5203,PAYLOAD,2024-01-20 14:53:00,15.08841217,0.0001439,53.2169,196.3758,77.1698,282.9455,1.5178e-05,-4.6e-07,0.0,0 STARLINK-5203,1 54104U 22136BF  24020.62014484 -.00000046  00000-0  15178-4 0  9992,2 54104  53.2169 196.3758 0001439  77.1698 282.9455 15.08841217 69867,6917.877,95.437,540.737,538.746,0.0
54104.0,STARLINK-5203,PAYLOAD,2024-01-20 18:03:46,15.08840997,0.0001378,53.2166,195.7812,81.0234,279.0914,1.111e-05,-1.11e-06,0.0,0 STARLINK-5203,1 54104U 22136BF  24020.75262454 -.00000111  00000-0  11110-4 0  9993,2 54104  53.2166 195.7812 0001378  81.0234 279.0914 15.08840997 70357,6917.877,95.437,540.696,538.789,0.0
